[{"OBJECT_NAME":"OSCAR 7 (AO-7)","OBJECT_ID":"1974-089B","EPOCH":"2026-03-06T20:32:05.256096","MEAN_MOTION":12.53696319,"ECCENTRICITY":0.0011989,"INCLINATION":101.997,"RA_OF_ASC_NODE":78.0149,"ARG_OF_PERICENTER":327.6046,"MEAN_ANOMALY":154.4377,"EPHEMERIS_TYPE":0,"CLASSIFICATION_TYPE":"U","NORAD_CAT_ID":7530,"ELEMENT_SET_NO":999,"REV_AT_EPOCH":34769,"BSTAR":-1.8597e-5,"MEAN_MOTION_DOT":-4.9e-7,"MEAN_MOTION_DDOT":0},{"OBJECT_NAME":"PHASE 3B (AO-10)","OBJECT_ID":"1983-058B","EPOCH":"2026-03-02T12:48:52.290720","MEAN_MOTION":2.05874052,"ECCENTRICITY":0.6049007,"INCLINATION":25.932,"RA_OF_ASC_NODE":237.486,"ARG_OF_PERICENTER":86.0782,"MEAN_ANOMALY":336.7646,"EPHEMERIS_TYPE":0,"CLASSIFICATION_TYPE":"U","NORAD_CAT_ID":14129,"ELEMENT_SET_NO":999,"REV_AT_EPOCH":29329,"BSTAR":0,"MEAN_MOTION_DOT":-1.64e-6,"MEAN_MOTION_DDOT":0},{"OBJECT_NAME":"UOSAT 2 (UO-11)","OBJECT_ID":"1984-021B","EPOCH":"2026-03-06T20:29:49.908768","MEAN_MOTION":14.90494764,"ECCENTRICITY":0.0008192,"INCLINATION":97.7949,"RA_OF_ASC_NODE":32.6605,"ARG_OF_PERICENTER":151.8308,"MEAN_ANOMALY":208.3355,"EPHEMERIS_TYPE":0,"CLASSIFICATION_TYPE":"U","NORAD_CAT_ID":14781,"ELEMENT_SET_NO":999,"REV_AT_EPOCH":24188,"BSTAR":0.00028759,"MEAN_MOTION_DOT":2.753e-5,"MEAN_MOTION_DDOT":0},{"OBJECT_NAME":"LUSAT (LO-19)","OBJECT_ID":"1990-005G","EPOCH":"2026-03-06T11:33:06.740928","MEAN_MOTION":14.34086516,"ECCENTRICITY":0.00122167,"INCLINATION":98.8938,"RA_OF_ASC_NODE":84.4174,"ARG_OF_PERICENTER":143.3306,"MEAN_ANOMALY":216.8716,"EPHEMERIS_TYPE":0,"CLASSIFICATION_TYPE":"U","NORAD_CAT_ID":20442,"ELEMENT_SET_NO":999,"REV_AT_EPOCH":88767,"BSTAR":9.1722071e-5,"MEAN_MOTION_DOT":2.1e-6,"MEAN_MOTION_DDOT":0},{"OBJECT_NAME":"EYESAT A (AO-27)","OBJECT_ID":"1993-061C","EPOCH":"2026-03-06T10:05:34.743264","MEAN_MOTION":14.30911837,"ECCENTRICITY":0.0009101,"INCLINATION":98.6988,"RA_OF_ASC_NODE":132.828,"ARG_OF_PERICENTER":47.8578,"MEAN_ANOMALY":312.3376,"EPHEMERIS_TYPE":0,"CLASSIFICATION_TYPE":"U","NORAD_CAT_ID":22825,"ELEMENT_SET_NO":999,"REV_AT_EPOCH":69230,"BSTAR":7.9761101e-5,"MEAN_MOTION_DOT":1.65e-6,"MEAN_MOTION_DDOT":0},{"OBJECT_NAME":"ITAMSAT (IO-26)","OBJECT_ID":"1993-061D","EPOCH":"2026-03-06T10:19:52.489632","MEAN_MOTION":14.31335788,"ECCENTRICITY":0.00093754,"INCLINATION":98.6936,"RA_OF_ASC_NODE":132.7453,"ARG_OF_PERICENTER":32.2163,"MEAN_ANOMALY":327.9591,"EPHEMERIS_TYPE":0,"CLASSIFICATION_TYPE":"U","NORAD_CAT_ID":22826,"ELEMENT_SET_NO":999,"REV_AT_EPOCH":69261,"BSTAR":8.6954776e-5,"MEAN_MOTION_DOT":1.86e-6,"MEAN_MOTION_DDOT":0},{"OBJECT_NAME":"RADIO ROSTO (RS15)","OBJECT_ID":"1994-085A","EPOCH":"2026-03-06T14:11:38.012352","MEAN_MOTION":11.27583911,"ECCENTRICITY":0.0152551,"INCLINATION":64.8143,"RA_OF_ASC_NODE":109.1445,"ARG_OF_PERICENTER":22.6119,"MEAN_ANOMALY":338.1434,"EPHEMERIS_TYPE":0,"CLASSIFICATION_TYPE":"U","NORAD_CAT_ID":23439,"ELEMENT_SET_NO":999,"REV_AT_EPOCH":28433,"BSTAR":0.00048542874,"MEAN_MOTION_DOT":-2.5e-7,"MEAN_MOTION_DDOT":0},{"OBJECT_NAME":"JAS-2 (FO-29)","OBJECT_ID":"1996-046B","EPOCH":"2026-03-06T20:05:42.145440","MEAN_MOTION":13.53268552,"ECCENTRICITY":0.0349945,"INCLINATION":98.5384,"RA_OF_ASC_NODE":288.6427,"ARG_OF_PERICENTER":2.1678,"MEAN_ANOMALY":358.0885,"EPHEMERIS_TYPE":0,"CLASSIFICATION_TYPE":"U","NORAD_CAT_ID":24278,"ELEMENT_SET_NO":999,"REV_AT_EPOCH":45932,"BSTAR":2.017e-5,"MEAN_MOTION_DOT":-1.6e-7,"MEAN_MOTION_DDOT":0},{"OBJECT_NAME":"TECHSAT 1B (GO-32)","OBJECT_ID":"1998-043D","EPOCH":"2026-03-06T13:53:53.649888","MEAN_MOTION":14.24405139,"ECCENTRICITY":0.00019818,"INCLINATION":99.0025,"RA_OF_ASC_NODE":55.7755,"ARG_OF_PERICENTER":124.4522,"MEAN_ANOMALY":235.6844,"EPHEMERIS_TYPE":0,"CLASSIFICATION_TYPE":"U","NORAD_CAT_ID":25397,"ELEMENT_SET_NO":999,"REV_AT_EPOCH":43672,"BSTAR":7.3413085e-5,"MEAN_MOTION_DOT":1.23e-6,"MEAN_MOTION_DDOT":0},{"OBJECT_NAME":"ISS (ZARYA)","OBJECT_ID":"1998-067A","EPOCH":"2026-03-06T13:04:21.510624","MEAN_MOTION":15.48477653,"ECCENTRICITY":0.00081171,"INCLINATION":51.6317,"RA_OF_ASC_NODE":87.9051,"ARG_OF_PERICENTER":163.3368,"MEAN_ANOMALY":196.7888,"EPHEMERIS_TYPE":0,"CLASSIFICATION_TYPE":"U","NORAD_CAT_ID":25544,"ELEMENT_SET_NO":999,"REV_AT_EPOCH":55584,"BSTAR":0.00018044032,"MEAN_MOTION_DOT":9.332e-5,"MEAN_MOTION_DDOT":0},{"OBJECT_NAME":"PCSAT (NO-44)","OBJECT_ID":"2001-043C","EPOCH":"2026-03-06T14:59:39.273504","MEAN_MOTION":14.31910487,"ECCENTRICITY":0.00070164,"INCLINATION":67.0508,"RA_OF_ASC_NODE":149.5392,"ARG_OF_PERICENTER":265.2992,"MEAN_ANOMALY":94.7308,"EPHEMERIS_TYPE":0,"CLASSIFICATION_TYPE":"U","NORAD_CAT_ID":26931,"ELEMENT_SET_NO":999,"REV_AT_EPOCH":27576,"BSTAR":0.00012745403,"MEAN_MOTION_DOT":2.59e-6,"MEAN_MOTION_DDOT":0},{"OBJECT_NAME":"SAUDISAT 1C (SO-50)","OBJECT_ID":"2002-058C","EPOCH":"2026-03-06T10:44:26.232576","MEAN_MOTION":14.82767672,"ECCENTRICITY":0.0075186,"INCLINATION":64.5519,"RA_OF_ASC_NODE":86.7998,"ARG_OF_PERICENTER":281.2996,"MEAN_ANOMALY":77.9668,"EPHEMERIS_TYPE":0,"CLASSIFICATION_TYPE":"U","NORAD_CAT_ID":27607,"ELEMENT_SET_NO":999,"REV_AT_EPOCH":24922,"BSTAR":0.00030257156,"MEAN_MOTION_DOT":2.421e-5,"MEAN_MOTION_DDOT":0},{"OBJECT_NAME":"CUTE-1 (CO-55)","OBJECT_ID":"2003-031E","EPOCH":"2026-03-06T11:20:45.431520","MEAN_MOTION":14.24263129,"ECCENTRICITY":0.0010574,"INCLINATION":98.678,"RA_OF_ASC_NODE":75.3114,"ARG_OF_PERICENTER":120.8066,"MEAN_ANOMALY":239.4155,"EPHEMERIS_TYPE":0,"CLASSIFICATION_TYPE":"U","NORAD_CAT_ID":27844,"ELEMENT_SET_NO":999,"REV_AT_EPOCH":17705,"BSTAR":0.00022533316,"MEAN_MOTION_DOT":4.76e-6,"MEAN_MOTION_DDOT":0},{"OBJECT_NAME":"CUBESAT XI-IV (CO-57)","OBJECT_ID":"2003-031J","EPOCH":"2026-03-06T11:31:37.549344","MEAN_MOTION":14.23558642,"ECCENTRICITY":0.00102519,"INCLINATION":98.6809,"RA_OF_ASC_NODE":75.114,"ARG_OF_PERICENTER":137.2488,"MEAN_ANOMALY":222.9489,"EPHEMERIS_TYPE":0,"CLASSIFICATION_TYPE":"U","NORAD_CAT_ID":27848,"ELEMENT_SET_NO":999,"REV_AT_EPOCH":17676,"BSTAR":0.00018932522,"MEAN_MOTION_DOT":3.87e-6,"MEAN_MOTION_DDOT":0},{"OBJECT_NAME":"MOZHAETS 4 (RS22)","OBJECT_ID":"2003-042A","EPOCH":"2026-03-06T21:08:41.024832","MEAN_MOTION":14.73244738,"ECCENTRICITY":0.001034,"INCLINATION":98.3429,"RA_OF_ASC_NODE":247.3642,"ARG_OF_PERICENTER":230.082,"MEAN_ANOMALY":258.8117,"EPHEMERIS_TYPE":0,"CLASSIFICATION_TYPE":"U","NORAD_CAT_ID":27939,"ELEMENT_SET_NO":999,"REV_AT_EPOCH":20048,"BSTAR":0.00028822,"MEAN_MOTION_DOT":1.809e-5,"MEAN_MOTION_DDOT":0},{"OBJECT_NAME":"CUBESAT XI-V","OBJECT_ID":"2005-043F","EPOCH":"2026-03-06T09:15:30.084768","MEAN_MOTION":14.72302296,"ECCENTRICITY":0.00145559,"INCLINATION":98.2825,"RA_OF_ASC_NODE":218.9473,"ARG_OF_PERICENTER":167.7954,"MEAN_ANOMALY":192.3608,"EPHEMERIS_TYPE":0,"CLASSIFICATION_TYPE":"U","NORAD_CAT_ID":28895,"ELEMENT_SET_NO":999,"REV_AT_EPOCH":8662,"BSTAR":0.00045496352,"MEAN_MOTION_DOT":2.828e-5,"MEAN_MOTION_DDOT":0}]
