OSCAR 7 (AO-7)          
1 07530U 74089B   26065.85561639 -.00000049  00000+0 -18597-4 0  9993
2 07530 101.9970  78.0149 0011989 327.6046 154.4377 12.53696319347694
PHASE 3B (AO-10)        
1 14129U 83058B   26061.53393855 -.00000164  00000+0  00000+0 0  9997
2 14129  25.9320 237.4860 6049007  86.0782 336.7646  2.05874052293290
UOSAT 2 (UO-11)         
1 14781U 84021B   26065.85404987  .00002753  00000+0  28759-3 0  9990
2 14781  97.7949  32.6605 0008192 151.8308 208.3355 14.90494764241883
LUSAT (LO-19)           
1 20442U 90005G   26065.48132802  .00000210  00000+0  91722-4 0  9990
2 20442  98.8938  84.4174 0012216 143.3306 216.8716 14.34086516887674
EYESAT A (AO-27)        
1 22825U 93061C   26065.42054101  .00000165  00000+0  79761-4 0  9999
2 22825  98.6988 132.8280 0009101  47.8578 312.3376 14.30911837692305
ITAMSAT (IO-26)         
1 22826U 93061D   26065.43046863  .00000186  00000+0  86955-4 0  9993
2 22826  98.6936 132.7453 0009375  32.2163 327.9591 14.31335788692612
RADIO ROSTO (RS15)      
1 23439U 94085A   26065.59141218 -.00000025  00000+0  48543-3 0  9991
2 23439  64.8143 109.1445 0152551  22.6119 338.1434 11.27583911284337
JAS-2 (FO-29)           
1 24278U 96046B   26065.83729335 -.00000016  00000+0  20170-4 0  9998
2 24278  98.5384 288.6427 0349945   2.1678 358.0885 13.53268552459327
TECHSAT 1B (GO-32)      
1 25397U 98043D   26065.57909317  .00000123  00000+0  73413-4 0  9997
2 25397  99.0025  55.7755 0001981 124.4522 235.6844 14.24405139436723
ISS (ZARYA)             
1 25544U 98067A   26065.54469341  .00009332  00000+0  18044-3 0  9991
2 25544  51.6317  87.9051 0008117 163.3368 196.7888 15.48477653555846
PCSAT (NO-44)           
1 26931U 01043C   26065.62476011  .00000259  00000+0  12745-3 0  9992
2 26931  67.0508 149.5392 0007016 265.2992  94.7308 14.31910487275767
SAUDISAT 1C (SO-50)     
1 27607U 02058C   26065.44752584  .00002421  00000+0  30257-3 0  9993
2 27607  64.5519  86.7998 0075186 281.2996  77.9668 14.82767672249227
CUTE-1 (CO-55)          
1 27844U 03031E   26065.47274805  .00000476  00000+0  22533-3 0  9992
2 27844  98.6780  75.3114 0010574 120.8066 239.4155 14.24263129177059
CUBESAT XI-IV (CO-57)   
1 27848U 03031J   26065.48029571  .00000387  00000+0  18933-3 0  9995
2 27848  98.6809  75.1140 0010251 137.2488 222.9489 14.23558642176764
MOZHAETS 4 (RS22)       
1 27939U 03042A   26065.88103038  .00001809  00000+0  28822-3 0  9991
2 27939  98.3429 247.3642 0010340 230.0820 258.8117 14.73244738200487
CUBESAT XI-V            
1 28895U 05043F   26065.38576487  .00002828  00000+0  45496-3 0  9991
2 28895  98.2825 218.9473 0014555 167.7954 192.3608 14.72302296 86628
